NORAD_CAT_ID,OBJECT_NAME,OBJECT_TYPE,EPOCH,MEAN_MOTION,ECCENTRICITY,INCLINATION,RA_OF_ASC_NODE,ARG_OF_PERICENTER,MEAN_ANOMALY,BSTAR,MEAN_MOTION_DOT,MEAN_MOTION_DDOT,TLE_LINE0,TLE_LINE1,TLE_LINE2,SEMIMAJOR_AXIS,PERIOD,APOGEE,PERIGEE,DECAYED
53803.0,STARLINK-4727,PAYLOAD,2024-04-22 03:52:06,15.08864155,0.0001881,53.2172,91.1135,121.7001,238.4174,0.00047286,7.25e-05,0.0,0 STARLINK-4727,1 53803U 22111AG  24113.16118996  .00007250  00000-0  47286-3 0  9992,2 53803  53.2172  91.1135 0001881 121.7001 238.4174 15.08864155 89572,6917.807,95.436,540.973,538.37,0.0
53803.0,STARLINK-4727,PAYLOAD,2024-04-22 08:38:16,15.0886162,0.000227,53.2169,90.2126,125.6178,234.5026,0.00043647,6.669e-05,0.0,0 STARLINK-4727,1 53803U 22111AG  24113.35990830  .00006669  00000-0  43647-3 0  9998,2 53803  53.2169  90.2126 0002270 125.6178 234.5026 15.08861620 90411,6917.814,95.436,541.25,538.109,0.0
53803.0,STARLINK-4727,PAYLOAD,2024-04-22 22:56:46,15.08833526,0.0001694,53.2158,87.5382,93.558,266.5606,0.00055853,8.611e-05,0.0,0 STARLINK-4727,1 53803U 22111AG  24113.95609062  .00008611  00000-0  55853-3 0  9999,2 53803  53.2158  87.5382 0001694  93.5580 266.5606 15.08833526 90504,6917.9,95.438,540.937,538.593,0.0
53803.0,STARLINK-4727,PAYLOAD,2024-04-23 03:42:55,15.08832831,0.0001397,53.2166,86.6525,79.3292,280.7857,0.00044643,6.823e-05,0.0,0 STARLINK-4727,1 53803U 22111AG  24114.15481238  .00006823  00000-0  44643-3 0  9993,2 53803  53.2166  86.6525 0001397  79.3292 280.7857 15.08832831 89720,6917.902,95.438,540.734,538.801,0.0
53803.0,STARLINK-4727,PAYLOAD,2024-04-23 21:12:08,15.08855183,0.0001949,53.218,83.384,115.4968,244.6225,-0.00029184,-4.932e-05,0.0,0 STARLINK-4727,1 53803U 22111AG  24114.88343489 -.00004932  00000-0 -29184-3 0  9992,2 53803  53.2180  83.3840 0001949 115.4968 244.6225 15.08855183 89830,6917.834,95.437,541.047,538.351,0.0
53803.0,STARLINK-4727,PAYLOAD,2024-04-24 06:44:27,15.08858018,0.000167,53.2179,81.5995,105.8016,254.316,0.00011047,1.471e-05,0.0,0 STARLINK-4727,1 53803U 22111AG  24115.28087055  .00001471  00000-0  11047-3 0  9993,2 53803  53.2179  81.5995 0001670 105.8016 254.3160 15.08858018 90701,6917.825,95.436,540.846,538.535,0.0
53803.0,STARLINK-4727,PAYLOAD,2024-04-24 21:02:55,15.0884242,0.0001843,53.2174,78.9181,119.266,240.8517,6.719e-05,7.81e-06,0.0,0 STARLINK-4727,1 53803U 22111AG  24115.87703494  .00000781  00000-0  67190-4 0  9994,2 53803  53.2174  78.9181 0001843 119.2660 240.8517 15.08842420 89983,6917.873,95.437,541.013,538.463,0.0
53803.0,STARLINK-4727,PAYLOAD,2024-04-25 04:59:51,15.08840309,0.0001553,53.2174,77.4361,73.7655,286.3508,6.9303e-05,8.15e-06,0.0,0 STARLINK-4727,1 53803U 22111AG  24116.20823926  .00000815  00000-0  69303-4 0  9991,2 53803  53.2174  77.4361 0001553  73.7655 286.3508 15.08840309 90030,6917.879,95.438,540.819,538.67,0.0
53803.0,STARLINK-4727,PAYLOAD,2024-04-25 06:35:14,15.08841203,0.0001492,53.217,77.1374,76.1997,283.9161,8.5011e-05,1.065e-05,0.0,0 STARLINK-4727,1 53803U 22111AG  24116.27447860  .00001065  00000-0  85011-4 0  9999,2 53803  53.2170  77.1374 0001492  76.1997 283.9161 15.08841203 90857,6917.877,95.437,540.774,538.71,0.0
53803.0,STARLINK-4727,PAYLOAD,2024-04-26 06:26:01,15.08853686,0.0001357,53.2175,72.6716,99.3901,260.7245,0.00032375,4.87e-05,0.0,0 STARLINK-4727,1 53803U 22111AG  24117.26807261  .00004870  00000-0  32375-3 0  9995,2 53803  53.2175  72.6716 0001357  99.3901 260.7245 15.08853686 90195,6917.839,95.437,540.642,538.765,0.0
53803.0,STARLINK-4727,PAYLOAD,2024-04-26 14:22:57,15.08843932,0.0001149,53.217,71.1849,98.5239,261.5883,0.00013767,1.904e-05,0.0,0 STARLINK-4727,1 53803U 22111AG  24117.59927456  .00001904  00000-0  13767-3 0  9999,2 53803  53.2170  71.1849 0001149  98.5239 261.5883 15.08843932 91051,6917.868,95.437,540.528,538.939,0.0
53803.0,STARLINK-4727,PAYLOAD,2024-04-27 14:13:44,15.08840847,0.0002444,53.2176,66.7288,86.0244,274.1027,4.4041e-05,4.13e-06,0.0,0 STARLINK-4727,1 53803U 22111AG  24118.59287893  .00000413  00000-0  44041-4 0  9998,2 53803  53.2176  66.7288 0002444  86.0244 274.1027 15.08840847 91200,6917.878,95.438,541.434,538.052,0.0
53803.0,STARLINK-4727,PAYLOAD,2024-04-28 06:07:35,15.08844185,0.0001681,53.2184,63.7531,106.2325,253.8853,4.3344e-05,4.02e-06,0.0,0 STARLINK-4727,1 53803U 22111AG  24119.25527465  .00000402  00000-0  43344-4 0  9997,2 53803  53.2184  63.7531 0001681 106.2325 253.8853 15.08844185 91305,6917.868,95.437,540.895,538.57,0.0
53803.0,STARLINK-4727,PAYLOAD,2024-04-29 01:12:14,15.08832905,0.0001637,53.2179,60.1823,110.4598,249.657,-8.7344e-06,-4.27e-06,0.0,0 STARLINK-4727,1 53803U 22111AG  24120.05016300 -.00000427  00000-0 -87344-5 0  9996,2 53803  53.2179  60.1823 0001637 110.4598 249.6570 15.08832905 90613,6917.902,95.438,540.9,538.635,0.0
53803.0,STARLINK-4727,PAYLOAD,2024-04-29 20:16:51,15.08832321,0.0001657,53.2174,56.6135,116.9328,243.1834,0.00010265,1.346e-05,0.0,0 STARLINK-4727,1 53803U 22111AG  24120.84504608  .00001346  00000-0  10265-3 0  9991,2 53803  53.2174  56.6135 0001657 116.9328 243.1834 15.08832321 91545,6917.904,95.438,540.915,538.623,0.0
53803.0,STARLINK-4727,PAYLOAD,2024-04-30 02:38:24,15.08838907,0.0001361,53.217,55.4291,101.634,258.4805,0.0001921,2.771e-05,0.0,0 STARLINK-4727,1 53803U 22111AG  24121.11000485  .00002771  00000-0  19210-3 0  9998,2 53803  53.2170  55.4291 0001361 101.6340 258.4805 15.08838907 90775,6917.884,95.438,540.69,538.807,0.0
53803.0,STARLINK-4727,PAYLOAD,2024-04-30 12:10:43,15.0884155,0.0001333,53.2171,53.6461,100.4369,259.6773,0.00012688,1.732e-05,0.0,0 STARLINK-4727,1 53803U 22111AG  24121.50744425  .00001732  00000-0  12688-3 0  9998,2 53803  53.2171  53.6461 0001333 100.4369 259.6773 15.08841550 91644,6917.876,95.437,540.663,538.818,0.0
53803.0,STARLINK-4727,PAYLOAD,2024-05-01 12:01:30,15.08842779,0.0001502,53.2183,49.1868,96.979,263.1373,0.0003504,5.293e-05,0.0,0 STARLINK-4727,1 53803U 22111AG  24122.50104565  .00005293  00000-0  35040-3 0  9997,2 53803  53.2183  49.1868 0001502  96.9790 263.1373 15.08842779 90989,6917.872,95.437,540.776,538.698,0.0
53803.0,STARLINK-4727,PAYLOAD,2024-05-02 11:52:16,15.08842518,0.0001416,53.2165,44.7211,86.925,273.1905,8.3808e-06,-1.55e-06,0.0,0 STARLINK-4727,1 53803U 22111AG  24123.49464029 -.00000155  00000-0  83808-5 0  9990,2 53803  53.2165  44.7211 0001416  86.9250 273.1905 15.08842518 91946,6917.873,95.437,540.717,538.758,0.0
53803.0,STARLINK-4727,PAYLOAD,2024-05-03 02:10:44,15.08854804,0.0001374,53.2174,42.0476,98.7292,261.3856,0.00014554,2.03e-05,0.0,0 STARLINK-4727,1 53803U 22111AG  24124.09079401  .00002030  00000-0  14554-3 0  9996,2 53803  53.2174  42.0476 0001374  98.7292 261.3856 15.08854804 91226,6917.835,95.437,540.651,538.75,0.0
53803.0,STARLINK-4727,PAYLOAD,2024-05-03 11:43:04,15.08842435,0.0001584,53.2179,40.264,81.728,278.3892,-6.5717e-06,-3.93e-06,0.0,0 STARLINK-4727,1 53803U 22111AG  24124.48824081 -.00000393  00000-0 -65717-5 0  9992,2 53803  53.2179  40.2640 0001584  81.7280 278.3892 15.08842435 91287,6917.873,95.437,540.834,538.642,0.0
53803.0,STARLINK-4727,PAYLOAD,2024-05-03 22:50:46,15.08833976,0.0001607,53.2173,38.1816,86.934,273.1836,-5.5696e-05,-1.174e-05,0.0,0 STARLINK-4727,1 53803U 22111AG  24124.95192629 -.00001174  00000-0 -55696-4 0  9992,2 53803  53.2173  38.1816 0001607  86.9340 273.1836 15.08833976 92161,6917.899,95.438,540.876,538.652,0.0
53803.0,STARLINK-4727,PAYLOAD,2024-05-04 03:36:55,15.08841056,0.0001338,53.2173,37.288,99.7947,260.3196,-2.6057e-05,-7.03e-06,0.0,0 STARLINK-4727,1 53803U 22111AG  24125.15064590 -.00000703  00000-0 -26057-4 0  9996,2 53803  53.2173  37.2880 0001338  99.7947 260.3196 15.08841056 91386,6917.877,95.437,540.668,538.817,0.0
53803.0,STARLINK-4727,PAYLOAD,2024-05-05 00:16:56,15.08838266,0.0001378,53.2171,33.4228,89.8777,270.2373,0.00011301,1.511e-05,0.0,0 STARLINK-4727,1 53803U 22111AG  24126.01176757  .00001511  00000-0  11301-3 0  9992,2 53803  53.2171  33.4228 0001378  89.8777 270.2373 15.08838266 92324,6917.886,95.438,540.704,538.797,0.0
53803.0,STARLINK-4727,PAYLOAD,2024-05-05 20:56:57,15.08845064,0.0001475,53.2177,29.5574,87.2343,272.8818,0.00022947,3.366e-05,0.0,0 STARLINK-4727,1 53803U 22111AG  24126.87288213  .00003366  00000-0  22947-3 0  9995,2 53803  53.2177  29.5574 0001475  87.2343 272.8818 15.08845064 91649,6917.865,95.437,540.75,538.71,0.0
53803.0,STARLINK-4727,PAYLOAD,2024-05-05 22:32:20,15.08846411,0.0001474,53.2179,29.26,87.4956,272.6205,0.00024497,3.614e-05,0.0,0 STARLINK-4727,1 53803U 22111AG  24126.93912165  .00003614  00000-0  24497-3 0  9990,2 53803  53.2179  29.2600 0001474  87.4956 272.6205 15.08846411 92465,6917.861,95.437,540.745,538.706,0.0
53803.0,STARLINK-4727,PAYLOAD,2024-05-06 00:07:43,15.0885196,0.000143,53.2173,28.9623,84.1321,275.9834,0.0003055,4.579e-05,0.0,0 STARLINK-4727,1 53803U 22111AG  24127.00536281  .00004579  00000-0  30550-3 0  9998,2 53803  53.2173  28.9623 0001430  84.1321 275.9834 15.08851960 92472,6917.844,95.437,540.698,538.72,0.0
53803.0,STARLINK-4727,PAYLOAD,2024-05-06 22:23:07,15.0884653,0.0001581,53.2182,24.8003,100.2564,259.8606,0.00011084,1.477e-05,0.0,0 STARLINK-4727,1 53803U 22111AG  24127.93272141  .00001477  00000-0  11084-3 0  9997,2 53803  53.2182  24.8003 0001581 100.2564 259.8606 15.08846530 92616,6917.86,95.437,540.819,538.632,0.0
53803.0,STARLINK-4727,PAYLOAD,2024-05-07 03:09:16,15.08853178,0.0001419,53.2179,23.9085,92.8465,267.269,0.00016379,2.321e-05,0.0,0 STARLINK-4727,1 53803U 22111AG  24128.13143754  .00002321  00000-0  16379-3 0  9998,2 53803  53.2179  23.9085 0001419  92.8465 267.2690 15.08853178 91833,6917.84,95.437,540.687,538.723,0.0
53803.0,STARLINK-4727,PAYLOAD,2024-05-07 09:30:49,15.08844228,0.0001354,53.2174,22.7167,88.2136,271.9011,4.1844e-05,3.78e-06,0.0,0 STARLINK-4727,1 53803U 22111AG  24128.39640060  .00000378  00000-0  41844-4 0  9994,2 53803  53.2174  22.7167 0001354  88.2136 271.9011 15.08844228 91877,6917.867,95.437,540.669,538.796,0.0
